<?xml version="1.0" encoding="UTF-8"?>
<ndm xmlns:xsi="http://www.w3.org/2001/XMLSchema-instance" xsi:noNamespaceSchemaLocation="https://sanaregistry.org/r/ndmxml_unqualified/ndmxml-2.0.0-master-2.0.xsd">
<omm id="CCSDS_OMM_VERS" version="2.0">
<header><CREATION_DATE/><ORIGINATOR/></header><body><segment><metadata><OBJECT_NAME>IRIDIUM 26</OBJECT_NAME><OBJECT_ID>1997-043A</OBJECT_ID><CENTER_NAME>EARTH</CENTER_NAME><REF_FRAME>TEME</REF_FRAME><TIME_SYSTEM>UTC</TIME_SYSTEM><MEAN_ELEMENT_THEORY>SGP4</MEAN_ELEMENT_THEORY></metadata><data><meanElements><EPOCH>2025-07-24T18:49:06.978720</EPOCH><MEAN_MOTION>14.37168074</MEAN_MOTION><ECCENTRICITY>.0002053</ECCENTRICITY><INCLINATION>86.3940</INCLINATION><RA_OF_ASC_NODE>94.8284</RA_OF_ASC_NODE><ARG_OF_PERICENTER>80.7074</ARG_OF_PERICENTER><MEAN_ANOMALY>279.4356</MEAN_ANOMALY></meanElements><tleParameters><EPHEMERIS_TYPE>0</EPHEMERIS_TYPE><CLASSIFICATION_TYPE>U</CLASSIFICATION_TYPE><NORAD_CAT_ID>24903</NORAD_CAT_ID><ELEMENT_SET_NO>999</ELEMENT_SET_NO><REV_AT_EPOCH>46214</REV_AT_EPOCH><BSTAR>.11515E-3</BSTAR><MEAN_MOTION_DOT>.362E-5</MEAN_MOTION_DOT><MEAN_MOTION_DDOT>0</MEAN_MOTION_DDOT></tleParameters></data></segment></body></omm>
<omm id="CCSDS_OMM_VERS" version="2.0">
<header><CREATION_DATE/><ORIGINATOR/></header><body><segment><metadata><OBJECT_NAME>IRIDIUM 22</OBJECT_NAME><OBJECT_ID>1997-043E</OBJECT_ID><CENTER_NAME>EARTH</CENTER_NAME><REF_FRAME>TEME</REF_FRAME><TIME_SYSTEM>UTC</TIME_SYSTEM><MEAN_ELEMENT_THEORY>SGP4</MEAN_ELEMENT_THEORY></metadata><data><meanElements><EPOCH>2025-07-25T03:54:54.820800</EPOCH><MEAN_MOTION>14.35977774</MEAN_MOTION><ECCENTRICITY>.0002073</ECCENTRICITY><INCLINATION>86.3947</INCLINATION><RA_OF_ASC_NODE>98.2427</RA_OF_ASC_NODE><ARG_OF_PERICENTER>86.3573</ARG_OF_PERICENTER><MEAN_ANOMALY>273.7861</MEAN_ANOMALY></meanElements><tleParameters><EPHEMERIS_TYPE>0</EPHEMERIS_TYPE><CLASSIFICATION_TYPE>U</CLASSIFICATION_TYPE><NORAD_CAT_ID>24907</NORAD_CAT_ID><ELEMENT_SET_NO>999</ELEMENT_SET_NO><REV_AT_EPOCH>46221</REV_AT_EPOCH><BSTAR>.10248E-3</BSTAR><MEAN_MOTION_DOT>.317E-5</MEAN_MOTION_DOT><MEAN_MOTION_DDOT>0</MEAN_MOTION_DDOT></tleParameters></data></segment></body></omm>
<omm id="CCSDS_OMM_VERS" version="2.0">
<header><CREATION_DATE/><ORIGINATOR/></header><body><segment><metadata><OBJECT_NAME>DUMMY MASS 1</OBJECT_NAME><OBJECT_ID>1997-048A</OBJECT_ID><CENTER_NAME>EARTH</CENTER_NAME><REF_FRAME>TEME</REF_FRAME><TIME_SYSTEM>UTC</TIME_SYSTEM><MEAN_ELEMENT_THEORY>SGP4</MEAN_ELEMENT_THEORY></metadata><data><meanElements><EPOCH>2025-07-24T19:59:09.922272</EPOCH><MEAN_MOTION>14.87010883</MEAN_MOTION><ECCENTRICITY>.0007604</ECCENTRICITY><INCLINATION>86.3360</INCLINATION><RA_OF_ASC_NODE>117.9290</RA_OF_ASC_NODE><ARG_OF_PERICENTER>31.2425</ARG_OF_PERICENTER><MEAN_ANOMALY>328.9250</MEAN_ANOMALY></meanElements><tleParameters><EPHEMERIS_TYPE>0</EPHEMERIS_TYPE><CLASSIFICATION_TYPE>U</CLASSIFICATION_TYPE><NORAD_CAT_ID>24925</NORAD_CAT_ID><ELEMENT_SET_NO>999</ELEMENT_SET_NO><REV_AT_EPOCH>51072</REV_AT_EPOCH><BSTAR>.41272E-4</BSTAR><MEAN_MOTION_DOT>.398E-5</MEAN_MOTION_DOT><MEAN_MOTION_DDOT>0</MEAN_MOTION_DDOT></tleParameters></data></segment></body></omm>
<omm id="CCSDS_OMM_VERS" version="2.0">
<header><CREATION_DATE/><ORIGINATOR/></header><body><segment><metadata><OBJECT_NAME>DUMMY MASS 2</OBJECT_NAME><OBJECT_ID>1997-048B</OBJECT_ID><CENTER_NAME>EARTH</CENTER_NAME><REF_FRAME>TEME</REF_FRAME><TIME_SYSTEM>UTC</TIME_SYSTEM><MEAN_ELEMENT_THEORY>SGP4</MEAN_ELEMENT_THEORY></metadata><data><meanElements><EPOCH>2025-07-25T04:55:12.459648</EPOCH><MEAN_MOTION>14.86763066</MEAN_MOTION><ECCENTRICITY>.0008716</ECCENTRICITY><INCLINATION>86.3362</INCLINATION><RA_OF_ASC_NODE>119.3712</RA_OF_ASC_NODE><ARG_OF_PERICENTER>38.4363</ARG_OF_PERICENTER><MEAN_ANOMALY>321.7482</MEAN_ANOMALY></meanElements><tleParameters><EPHEMERIS_TYPE>0</EPHEMERIS_TYPE><CLASSIFICATION_TYPE>U</CLASSIFICATION_TYPE><NORAD_CAT_ID>24926</NORAD_CAT_ID><ELEMENT_SET_NO>999</ELEMENT_SET_NO><REV_AT_EPOCH>51079</REV_AT_EPOCH><BSTAR>.42305E-4</BSTAR><MEAN_MOTION_DOT>.405E-5</MEAN_MOTION_DOT><MEAN_MOTION_DDOT>0</MEAN_MOTION_DDOT></tleParameters></data></segment></body></omm>
<omm id="CCSDS_OMM_VERS" version="2.0">
<header><CREATION_DATE/><ORIGINATOR/></header><body><segment><metadata><OBJECT_NAME>IRIDIUM 29</OBJECT_NAME><OBJECT_ID>1997-051A</OBJECT_ID><CENTER_NAME>EARTH</CENTER_NAME><REF_FRAME>TEME</REF_FRAME><TIME_SYSTEM>UTC</TIME_SYSTEM><MEAN_ELEMENT_THEORY>SGP4</MEAN_ELEMENT_THEORY></metadata><data><meanElements><EPOCH>2025-07-24T21:27:13.803264</EPOCH><MEAN_MOTION>14.36492157</MEAN_MOTION><ECCENTRICITY>.0002306</ECCENTRICITY><INCLINATION>86.3983</INCLINATION><RA_OF_ASC_NODE>128.0894</RA_OF_ASC_NODE><ARG_OF_PERICENTER>90.1822</ARG_OF_PERICENTER><MEAN_ANOMALY>269.9639</MEAN_ANOMALY></meanElements><tleParameters><EPHEMERIS_TYPE>0</EPHEMERIS_TYPE><CLASSIFICATION_TYPE>U</CLASSIFICATION_TYPE><NORAD_CAT_ID>24944</NORAD_CAT_ID><ELEMENT_SET_NO>999</ELEMENT_SET_NO><REV_AT_EPOCH>45868</REV_AT_EPOCH><BSTAR>.12459E-3</BSTAR><MEAN_MOTION_DOT>.385E-5</MEAN_MOTION_DOT><MEAN_MOTION_DDOT>0</MEAN_MOTION_DDOT></tleParameters></data></segment></body></omm>
<omm id="CCSDS_OMM_VERS" version="2.0">
<header><CREATION_DATE/><ORIGINATOR/></header><body><segment><metadata><OBJECT_NAME>IRIDIUM 36</OBJECT_NAME><OBJECT_ID>1997-056C</OBJECT_ID><CENTER_NAME>EARTH</CENTER_NAME><REF_FRAME>TEME</REF_FRAME><TIME_SYSTEM>UTC</TIME_SYSTEM><MEAN_ELEMENT_THEORY>SGP4</MEAN_ELEMENT_THEORY></metadata><data><meanElements><EPOCH>2025-07-25T03:34:45.729696</EPOCH><MEAN_MOTION>14.37633323</MEAN_MOTION><ECCENTRICITY>.0002002</ECCENTRICITY><INCLINATION>86.4013</INCLINATION><RA_OF_ASC_NODE>157.0634</RA_OF_ASC_NODE><ARG_OF_PERICENTER>87.2888</ARG_OF_PERICENTER><MEAN_ANOMALY>272.8538</MEAN_ANOMALY></meanElements><tleParameters><EPHEMERIS_TYPE>0</EPHEMERIS_TYPE><CLASSIFICATION_TYPE>U</CLASSIFICATION_TYPE><NORAD_CAT_ID>24967</NORAD_CAT_ID><ELEMENT_SET_NO>999</ELEMENT_SET_NO><REV_AT_EPOCH>45767</REV_AT_EPOCH><BSTAR>.11641E-3</BSTAR><MEAN_MOTION_DOT>.369E-5</MEAN_MOTION_DOT><MEAN_MOTION_DDOT>0</MEAN_MOTION_DDOT></tleParameters></data></segment></body></omm>

</ndm>
