IRIDIUM 26              
1 24903U 97043A   25205.78410855  .00000362  00000+0  11515-3 0  9999
2 24903  86.3940  94.8284 0002053  80.7074 279.4356 14.37168074462145
IRIDIUM 22              
1 24907U 97043E   25206.16313450  .00000317  00000+0  10248-3 0  9991
2 24907  86.3947  98.2427 0002073  86.3573 273.7861 14.35977774462210
DUMMY MASS 1            
1 24925U 97048A   25205.83275373  .00000398  00000+0  41272-4 0  9991
2 24925  86.3360 117.9290 0007604  31.2425 328.9250 14.87010883510727
DUMMY MASS 2            
1 24926U 97048B   25206.20500532  .00000405  00000+0  42305-4 0  9999
2 24926  86.3362 119.3712 0008716  38.4363 321.7482 14.86763066510792
IRIDIUM 29              
1 24944U 97051A   25205.89390976  .00000385  00000+0  12459-3 0  9999
2 24944  86.3983 128.0894 0002306  90.1822 269.9639 14.36492157458684
IRIDIUM 36              
1 24967U 97056C   25206.14914039  .00000369  00000+0  11641-3 0  9994
2 24967  86.4013 157.0634 0002002  87.2888 272.8538 14.37633323457672
